[
      {
      "OBJECT_NAME": "ISS (ZARYA)",
      "OBJECT_ID": "1998-067A",
      "EPOCH": "2024-09-30T00:17:48.323904",
      "MEAN_MOTION": 15.49923873,
      "ECCENTRICITY": 0.0007157,
      "INCLINATION": 51.6378,
      "RA_OF_ASC_NODE": 156.1679,
      "ARG_OF_PERICENTER": 46.4549,
      "MEAN_ANOMALY": 85.5633,
      "EPHEMERIS_TYPE": 0,
      "CLASSIFICATION_TYPE": "U",
      "NORAD_CAT_ID": 25544,
      "ELEMENT_SET_NO": 999,
      "REV_AT_EPOCH": 47480,
      "BSTAR": 0.00053549,
      "MEAN_MOTION_DOT": 0.00030163,
      "MEAN_MOTION_DDOT": 0
      },
      {
      "OBJECT_NAME": "CSS (TIANHE)",
      "OBJECT_ID": "2021-035A",
      "EPOCH": "2024-09-29T18:11:11.306400",
      "MEAN_MOTION": 15.63184762,
      "ECCENTRICITY": 0.0003611,
      "INCLINATION": 41.4667,
      "RA_OF_ASC_NODE": 165.4636,
      "ARG_OF_PERICENTER": 59.1776,
      "MEAN_ANOMALY": 300.9419,
      "EPHEMERIS_TYPE": 0,
      "CLASSIFICATION_TYPE": "U",
      "NORAD_CAT_ID": 48274,
      "ELEMENT_SET_NO": 999,
      "REV_AT_EPOCH": 19545,
      "BSTAR": 0.00076314,
      "MEAN_MOTION_DOT": 0.00072138,
      "MEAN_MOTION_DDOT": 0
      },
      {
      "OBJECT_NAME": "ISS (NAUKA)",
      "OBJECT_ID": "2021-066A",
      "EPOCH": "2024-09-29T20:38:06.238752",
      "MEAN_MOTION": 15.49913497,
      "ECCENTRICITY": 0.0007109,
      "INCLINATION": 51.6373,
      "RA_OF_ASC_NODE": 156.93,
      "ARG_OF_PERICENTER": 44.4443,
      "MEAN_ANOMALY": 315.7115,
      "EPHEMERIS_TYPE": 0,
      "CLASSIFICATION_TYPE": "U",
      "NORAD_CAT_ID": 49044,
      "ELEMENT_SET_NO": 999,
      "REV_AT_EPOCH": 18038,
      "BSTAR": 0.00049605,
      "MEAN_MOTION_DOT": 0.00027889,
      "MEAN_MOTION_DDOT": 0
      },
      {
      "OBJECT_NAME": "FREGAT DEB",
      "OBJECT_ID": "2011-037PF",
      "EPOCH": "2024-09-26T16:08:55.275072",
      "MEAN_MOTION": 12.20600309,
      "ECCENTRICITY": 0.0906381,
      "INCLINATION": 51.6378,
      "RA_OF_ASC_NODE": 55.3531,
      "ARG_OF_PERICENTER": 344.6057,
      "MEAN_ANOMALY": 12.8811,
      "EPHEMERIS_TYPE": 0,
      "CLASSIFICATION_TYPE": "U",
      "NORAD_CAT_ID": 49271,
      "ELEMENT_SET_NO": 999,
      "REV_AT_EPOCH": 14758,
      "BSTAR": 0.036111,
      "MEAN_MOTION_DOT": 0.00014155,
      "MEAN_MOTION_DDOT": 0
      },
      {
      "OBJECT_NAME": "CSS (WENTIAN)",
      "OBJECT_ID": "2022-085A",
      "EPOCH": "2024-09-29T18:11:11.306400",
      "MEAN_MOTION": 15.63184762,
      "ECCENTRICITY": 0.0003611,
      "INCLINATION": 41.4667,
      "RA_OF_ASC_NODE": 165.4636,
      "ARG_OF_PERICENTER": 59.1776,
      "MEAN_ANOMALY": 300.9419,
      "EPHEMERIS_TYPE": 0,
      "CLASSIFICATION_TYPE": "U",
      "NORAD_CAT_ID": 53239,
      "ELEMENT_SET_NO": 999,
      "REV_AT_EPOCH": 12439,
      "BSTAR": 0.00076314,
      "MEAN_MOTION_DOT": 0.00072138,
      "MEAN_MOTION_DDOT": 0
      },
      {
      "OBJECT_NAME": "CSS (MENGTIAN)",
      "OBJECT_ID": "2022-143A",
      "EPOCH": "2024-09-29T18:11:11.306400",
      "MEAN_MOTION": 15.63184762,
      "ECCENTRICITY": 0.0003611,
      "INCLINATION": 41.4667,
      "RA_OF_ASC_NODE": 165.4636,
      "ARG_OF_PERICENTER": 59.1776,
      "MEAN_ANOMALY": 300.9419,
      "EPHEMERIS_TYPE": 0,
      "CLASSIFICATION_TYPE": "U",
      "NORAD_CAT_ID": 54216,
      "ELEMENT_SET_NO": 999,
      "REV_AT_EPOCH": 10931,
      "BSTAR": 0.00076314,
      "MEAN_MOTION_DOT": 0.00072138,
      "MEAN_MOTION_DDOT": 0
      },
      {
      "OBJECT_NAME": "TIANZHOU-7",
      "OBJECT_ID": "2024-013A",
      "EPOCH": "2024-09-29T18:11:11.306400",
      "MEAN_MOTION": 15.63184762,
      "ECCENTRICITY": 0.0003611,
      "INCLINATION": 41.4667,
      "RA_OF_ASC_NODE": 165.4636,
      "ARG_OF_PERICENTER": 59.1776,
      "MEAN_ANOMALY": 300.9419,
      "EPHEMERIS_TYPE": 0,
      "CLASSIFICATION_TYPE": "U",
      "NORAD_CAT_ID": 58811,
      "ELEMENT_SET_NO": 999,
      "REV_AT_EPOCH": 19495,
      "BSTAR": 0.00076314,
      "MEAN_MOTION_DOT": 0.00072138,
      "MEAN_MOTION_DDOT": 0
      },
      {
      "OBJECT_NAME": "CREW DRAGON 8",
      "OBJECT_ID": "2024-042A",
      "EPOCH": "2024-09-29T20:38:06.238752",
      "MEAN_MOTION": 15.49913497,
      "ECCENTRICITY": 0.0007109,
      "INCLINATION": 51.6373,
      "RA_OF_ASC_NODE": 156.93,
      "ARG_OF_PERICENTER": 44.4443,
      "MEAN_ANOMALY": 315.7115,
      "EPHEMERIS_TYPE": 0,
      "CLASSIFICATION_TYPE": "U",
      "NORAD_CAT_ID": 59097,
      "ELEMENT_SET_NO": 999,
      "REV_AT_EPOCH": 47269,
      "BSTAR": 0.00049605,
      "MEAN_MOTION_DOT": 0.00027889,
      "MEAN_MOTION_DDOT": 0
      },
      {
      "OBJECT_NAME": "1998-067WL",
      "OBJECT_ID": "1998-067WL",
      "EPOCH": "2024-09-29T16:48:27.693792",
      "MEAN_MOTION": 15.7104096,
      "ECCENTRICITY": 0.0001889,
      "INCLINATION": 51.6274,
      "RA_OF_ASC_NODE": 146.8261,
      "ARG_OF_PERICENTER": 200.1152,
      "MEAN_ANOMALY": 159.9771,
      "EPHEMERIS_TYPE": 0,
      "CLASSIFICATION_TYPE": "U",
      "NORAD_CAT_ID": 59561,
      "ELEMENT_SET_NO": 999,
      "REV_AT_EPOCH": 2563,
      "BSTAR": 0.00099168,
      "MEAN_MOTION_DOT": 0.00128593,
      "MEAN_MOTION_DDOT": 0
      },
      {
      "OBJECT_NAME": "SHENZHOU-18 (SZ-18)",
      "OBJECT_ID": "2024-078A",
      "EPOCH": "2024-09-29T18:11:11.306400",
      "MEAN_MOTION": 15.63184762,
      "ECCENTRICITY": 0.0003611,
      "INCLINATION": 41.4667,
      "RA_OF_ASC_NODE": 165.4636,
      "ARG_OF_PERICENTER": 59.1776,
      "MEAN_ANOMALY": 300.9419,
      "EPHEMERIS_TYPE": 0,
      "CLASSIFICATION_TYPE": "U",
      "NORAD_CAT_ID": 59591,
      "ELEMENT_SET_NO": 999,
      "REV_AT_EPOCH": 2449,
      "BSTAR": 0.00076314,
      "MEAN_MOTION_DOT": 0.00072138,
      "MEAN_MOTION_DDOT": 0
      },
      {
      "OBJECT_NAME": "SZ-17 MODULE",
      "OBJECT_ID": "2023-164C",
      "EPOCH": "2024-09-29T20:38:31.142688",
      "MEAN_MOTION": 15.7917056,
      "ECCENTRICITY": 0.001313,
      "INCLINATION": 41.4729,
      "RA_OF_ASC_NODE": 156.3654,
      "ARG_OF_PERICENTER": 270.9633,
      "MEAN_ANOMALY": 88.9708,
      "EPHEMERIS_TYPE": 0,
      "CLASSIFICATION_TYPE": "U",
      "NORAD_CAT_ID": 59624,
      "ELEMENT_SET_NO": 999,
      "REV_AT_EPOCH": 2400,
      "BSTAR": 0.00063634,
      "MEAN_MOTION_DOT": 0.00119557,
      "MEAN_MOTION_DDOT": 0
      },
      {
      "OBJECT_NAME": "PROGRESS-MS 27",
      "OBJECT_ID": "2024-103A",
      "EPOCH": "2024-09-29T20:38:06.238752",
      "MEAN_MOTION": 15.49913497,
      "ECCENTRICITY": 0.0007109,
      "INCLINATION": 51.6373,
      "RA_OF_ASC_NODE": 156.93,
      "ARG_OF_PERICENTER": 44.4443,
      "MEAN_ANOMALY": 315.7115,
      "EPHEMERIS_TYPE": 0,
      "CLASSIFICATION_TYPE": "U",
      "NORAD_CAT_ID": 59913,
      "ELEMENT_SET_NO": 999,
      "REV_AT_EPOCH": 1875,
      "BSTAR": 0.00049605,
      "MEAN_MOTION_DOT": 0.00027889,
      "MEAN_MOTION_DDOT": 0
      },
      {
      "OBJECT_NAME": "CYGNUS NG-21",
      "OBJECT_ID": "2024-139A",
      "EPOCH": "2024-09-29T20:38:06.238752",
      "MEAN_MOTION": 15.49913497,
      "ECCENTRICITY": 0.0007109,
      "INCLINATION": 51.6373,
      "RA_OF_ASC_NODE": 156.93,
      "ARG_OF_PERICENTER": 44.4443,
      "MEAN_ANOMALY": 315.7115,
      "EPHEMERIS_TYPE": 0,
      "CLASSIFICATION_TYPE": "U",
      "NORAD_CAT_ID": 60378,
      "ELEMENT_SET_NO": 999,
      "REV_AT_EPOCH": 859,
      "BSTAR": 0.00049605,
      "MEAN_MOTION_DOT": 0.00027889,
      "MEAN_MOTION_DDOT": 0
      }
      ]
