ISS (ZARYA)             
1 25544U 98067A   24274.01236486  .00030163  00000+0  53549-3 0  9990
2 25544  51.6378 156.1679 0007157  46.4549  85.5633 15.49923873474803
CSS (TIANHE)            
1 48274U 21035A   24273.75776975  .00072138  00000+0  76314-3 0  9991
2 48274  41.4667 165.4636 0003611  59.1776 300.9419 15.63184762195455
ISS (NAUKA)             
1 49044U 21066A   24273.85979443  .00027889  00000+0  49605-3 0  9993
2 49044  51.6373 156.9300 0007109  44.4443 315.7115 15.49913497180387
FREGAT DEB              
1 49271U 11037PF  24270.67286198  .00014155  00000+0  36111-1 0  9995
2 49271  51.6378  55.3531 0906381 344.6057  12.8811 12.20600309147582
CSS (WENTIAN)           
1 53239U 22085A   24273.75776975  .00072138  00000+0  76314-3 0  9994
2 53239  41.4667 165.4636 0003611  59.1776 300.9419 15.63184762124397
CSS (MENGTIAN)          
1 54216U 22143A   24273.75776975  .00072138  00000+0  76314-3 0  9995
2 54216  41.4667 165.4636 0003611  59.1776 300.9419 15.63184762109318
TIANZHOU-7              
1 58811U 24013A   24273.75776975  .00072138  00000+0  76314-3 0  9998
2 58811  41.4667 165.4636 0003611  59.1776 300.9419 15.63184762194957
CREW DRAGON 8           
1 59097U 24042A   24273.85979443  .00027889  00000+0  49605-3 0  9999
2 59097  51.6373 156.9300 0007109  44.4443 315.7115 15.49913497472694
1998-067WL              
1 59561U 98067WL  24273.70032053  .00128593  00000+0  99168-3 0  9997
2 59561  51.6274 146.8261 0001889 200.1152 159.9771 15.71040960 25636
SHENZHOU-18 (SZ-18)     
1 59591U 24078A   24273.75776975  .00072138  00000+0  76314-3 0  9995
2 59591  41.4667 165.4636 0003611  59.1776 300.9419 15.63184762 24494
SZ-17 MODULE            
1 59624U 23164C   24273.86008267  .00119557  00000+0  63634-3 0  9999
2 59624  41.4729 156.3654 0013130 270.9633  88.9708 15.79170560 24000
PROGRESS-MS 27          
1 59913U 24103A   24273.85979443  .00027889  00000+0  49605-3 0  9994
2 59913  51.6373 156.9300 0007109  44.4443 315.7115 15.49913497 18754
CYGNUS NG-21            
1 60378U 24139A   24273.85979443  .00027889  00000+0  49605-3 0  9990
2 60378  51.6373 156.9300 0007109  44.4443 315.7115 15.49913497  8592
